IRIDIUM 126             
1 42809U 17039G   26196.96304335  .00000012  00000+0 -27446-5 0  9991
2 42809  86.3992 341.6148 0002072  90.9643 269.1790 14.34217578474079
IRIDIUM 124             
1 42810U 17039H   26196.75532233  .00000187  00000+0  49524-4 0  9992
2 42810  86.4482 278.4146 0002324  97.0036 263.1429 14.43286373479230
IRIDIUM 128             
1 42811U 17039J   26197.23285875  .00000033  00000+0  47296-5 0  9999
2 42811  86.3966  13.0028 0002301  94.4259 265.7199 14.34216817474145
IRIDIUM 121             
1 42812U 17039K   26196.91230262  .00000037  00000+0  60392-5 0  9990
2 42812  86.3992 341.6641 0002228  92.8819 267.2632 14.34217728473946
IRIDIUM 133             
1 42955U 17061A   26196.98549532  .00000045  00000+0  91128-5 0  9993
2 42955  86.3968  13.2247 0002205  91.0320 269.1129 14.34217253458908
IRIDIUM 100             
1 42956U 17061B   26196.97915419  .00000035  00000+0  55068-5 0  9996
2 42956  86.3966  13.1454 0002221  89.9895 270.1555 14.34217263458903
IRIDIUM 122             
1 42957U 17061C   26197.01720523  .00000040  00000+0  71145-5 0  9993
2 42957  86.3967  13.1298 0002131  91.6437 268.5002 14.34217221458916
IRIDIUM 129             
1 42958U 17061D   26197.25188250  .00000036  00000+0  56515-5 0  9994
2 42958  86.3967  13.0990 0002131  83.8995 276.2444 14.34217102458966
IRIDIUM 119             
1 42959U 17061E   26197.22017285  .00000037  00000+0  60339-5 0  9991
2 42959  86.3968  13.1081 0002111  90.7391 269.4046 14.34216814458977
IRIDIUM 107             
1 42960U 17061F   26197.23919772  .00000046  00000+0  95207-5 0  9998
2 42960  86.3968  13.1216 0002122  97.0664 263.0773 14.34217355458983
IRIDIUM 132             
1 42961U 17061G   26197.03623669  .00000035  00000+0  53856-5 0  9996
2 42961  86.3966  13.1857 0002180  90.5547 269.5899 14.34216708458953
IRIDIUM 136             
1 42962U 17061H   26197.20748741  .00000037  00000+0  62290-5 0  9999
2 42962  86.3968  13.1209 0002252  89.9539 270.1915 14.34217276458992
IRIDIUM 139             
1 42963U 17061J   26197.21383080  .00000042  00000+0  78160-5 0  9991
2 42963  86.3970  13.1807 0002255  92.2956 267.8498 14.34217244459000
IRIDIUM 125             
1 42964U 17061K   26197.20114488  .00000033  00000+0  47084-5 0  9996
2 42964  86.3971  13.2476 0001670  93.4382 266.7005 14.34217488459014
IRIDIUM 135             
1 43070U 17083A   26197.31480545  .00000069  00000+0  17623-4 0  9995
2 43070  86.3986 309.8400 0002211  93.9279 266.2170 14.34218108448322
IRIDIUM 138             
1 43071U 17083B   26197.27040522  .00000136  00000+0  41414-4 0  9998
2 43071  86.3999 309.5583 0002058  92.2687 267.8744 14.34218881448300
