{"fetched_at":"2026-07-16T17:46:01.774Z","source":"https://celestrak.org/NORAD/elements/gp.php?GROUP=iridium-NEXT&FORMAT=JSON","constellation":"iridium","records":[{"OBJECT_NAME":"IRIDIUM 126","OBJECT_ID":"2017-039G","EPOCH":"2026-07-15T23:06:46.945440","CLASSIFICATION_TYPE":"U","MEAN_MOTION":14.34217578,"ECCENTRICITY":0.0002072,"INCLINATION":86.3992,"RA_OF_ASC_NODE":341.6148,"ARG_OF_PERICENTER":90.9643,"MEAN_ANOMALY":269.179,"EPHEMERIS_TYPE":0,"NORAD_CAT_ID":42809,"ELEMENT_SET_NO":999,"REV_AT_EPOCH":47407,"BSTAR":-0.000002744605,"MEAN_MOTION_DOT":1.2e-7,"MEAN_MOTION_DDOT":0},{"OBJECT_NAME":"IRIDIUM 124","OBJECT_ID":"2017-039H","EPOCH":"2026-07-15T18:07:39.849312","CLASSIFICATION_TYPE":"U","MEAN_MOTION":14.43286373,"ECCENTRICITY":0.00023244,"INCLINATION":86.4482,"RA_OF_ASC_NODE":278.4146,"ARG_OF_PERICENTER":97.0036,"MEAN_ANOMALY":263.1429,"EPHEMERIS_TYPE":0,"NORAD_CAT_ID":42810,"ELEMENT_SET_NO":999,"REV_AT_EPOCH":47923,"BSTAR":0.00004952415,"MEAN_MOTION_DOT":0.00000187,"MEAN_MOTION_DDOT":0},{"OBJECT_NAME":"IRIDIUM 128","OBJECT_ID":"2017-039J","EPOCH":"2026-07-16T05:35:18.996000","CLASSIFICATION_TYPE":"U","MEAN_MOTION":14.34216817,"ECCENTRICITY":0.00023012,"INCLINATION":86.3966,"RA_OF_ASC_NODE":13.0028,"ARG_OF_PERICENTER":94.4259,"MEAN_ANOMALY":265.7199,"EPHEMERIS_TYPE":0,"NORAD_CAT_ID":42811,"ELEMENT_SET_NO":999,"REV_AT_EPOCH":47414,"BSTAR":0.000004729589,"MEAN_MOTION_DOT":3.3e-7,"MEAN_MOTION_DDOT":0},{"OBJECT_NAME":"IRIDIUM 121","OBJECT_ID":"2017-039K","EPOCH":"2026-07-15T21:53:42.946368","CLASSIFICATION_TYPE":"U","MEAN_MOTION":14.34217728,"ECCENTRICITY":0.0002228,"INCLINATION":86.3992,"RA_OF_ASC_NODE":341.6641,"ARG_OF_PERICENTER":92.8819,"MEAN_ANOMALY":267.2632,"EPHEMERIS_TYPE":0,"NORAD_CAT_ID":42812,"ELEMENT_SET_NO":999,"REV_AT_EPOCH":47394,"BSTAR":0.0000060392,"MEAN_MOTION_DOT":3.7e-7,"MEAN_MOTION_DDOT":0},{"OBJECT_NAME":"IRIDIUM 133","OBJECT_ID":"2017-061A","EPOCH":"2026-07-15T23:39:06.795648","CLASSIFICATION_TYPE":"U","MEAN_MOTION":14.34217253,"ECCENTRICITY":0.00022052,"INCLINATION":86.3968,"RA_OF_ASC_NODE":13.2247,"ARG_OF_PERICENTER":91.032,"MEAN_ANOMALY":269.1129,"EPHEMERIS_TYPE":0,"NORAD_CAT_ID":42955,"ELEMENT_SET_NO":999,"REV_AT_EPOCH":45890,"BSTAR":0.000009112812,"MEAN_MOTION_DOT":4.5e-7,"MEAN_MOTION_DDOT":0},{"OBJECT_NAME":"IRIDIUM 100","OBJECT_ID":"2017-061B","EPOCH":"2026-07-15T23:29:58.922016","CLASSIFICATION_TYPE":"U","MEAN_MOTION":14.34217263,"ECCENTRICITY":0.0002221,"INCLINATION":86.3966,"RA_OF_ASC_NODE":13.1454,"ARG_OF_PERICENTER":89.9895,"MEAN_ANOMALY":270.1555,"EPHEMERIS_TYPE":0,"NORAD_CAT_ID":42956,"ELEMENT_SET_NO":999,"REV_AT_EPOCH":45890,"BSTAR":0.000005506821,"MEAN_MOTION_DOT":3.5e-7,"MEAN_MOTION_DDOT":0},{"OBJECT_NAME":"IRIDIUM 122","OBJECT_ID":"2017-061C","EPOCH":"2026-07-16T00:24:46.531872","CLASSIFICATION_TYPE":"U","MEAN_MOTION":14.34217221,"ECCENTRICITY":0.00021317,"INCLINATION":86.3967,"RA_OF_ASC_NODE":13.1298,"ARG_OF_PERICENTER":91.6437,"MEAN_ANOMALY":268.5002,"EPHEMERIS_TYPE":0,"NORAD_CAT_ID":42957,"ELEMENT_SET_NO":999,"REV_AT_EPOCH":45891,"BSTAR":0.000007114504,"MEAN_MOTION_DOT":4e-7,"MEAN_MOTION_DDOT":0},{"OBJECT_NAME":"IRIDIUM 129","OBJECT_ID":"2017-061D","EPOCH":"2026-07-16T06:02:42.648000","CLASSIFICATION_TYPE":"U","MEAN_MOTION":14.34217102,"ECCENTRICITY":0.00021314,"INCLINATION":86.3967,"RA_OF_ASC_NODE":13.099,"ARG_OF_PERICENTER":83.8995,"MEAN_ANOMALY":276.2444,"EPHEMERIS_TYPE":0,"NORAD_CAT_ID":42958,"ELEMENT_SET_NO":999,"REV_AT_EPOCH":45896,"BSTAR":0.000005651496,"MEAN_MOTION_DOT":3.6e-7,"MEAN_MOTION_DDOT":0},{"OBJECT_NAME":"IRIDIUM 119","OBJECT_ID":"2017-061E","EPOCH":"2026-07-16T05:17:02.934240","CLASSIFICATION_TYPE":"U","MEAN_MOTION":14.34216814,"ECCENTRICITY":0.00021112,"INCLINATION":86.3968,"RA_OF_ASC_NODE":13.1081,"ARG_OF_PERICENTER":90.7391,"MEAN_ANOMALY":269.4046,"EPHEMERIS_TYPE":0,"NORAD_CAT_ID":42959,"ELEMENT_SET_NO":999,"REV_AT_EPOCH":45897,"BSTAR":0.000006033912,"MEAN_MOTION_DOT":3.7e-7,"MEAN_MOTION_DDOT":0},{"OBJECT_NAME":"IRIDIUM 107","OBJECT_ID":"2017-061F","EPOCH":"2026-07-16T05:44:26.683008","CLASSIFICATION_TYPE":"U","MEAN_MOTION":14.34217355,"ECCENTRICITY":0.00021221,"INCLINATION":86.3968,"RA_OF_ASC_NODE":13.1216,"ARG_OF_PERICENTER":97.0664,"MEAN_ANOMALY":263.0773,"EPHEMERIS_TYPE":0,"NORAD_CAT_ID":42960,"ELEMENT_SET_NO":999,"REV_AT_EPOCH":45898,"BSTAR":0.000009520674,"MEAN_MOTION_DOT":4.6e-7,"MEAN_MOTION_DDOT":0},{"OBJECT_NAME":"IRIDIUM 132","OBJECT_ID":"2017-061G","EPOCH":"2026-07-16T00:52:10.850016","CLASSIFICATION_TYPE":"U","MEAN_MOTION":14.34216708,"ECCENTRICITY":0.00021804,"INCLINATION":86.3966,"RA_OF_ASC_NODE":13.1857,"ARG_OF_PERICENTER":90.5547,"MEAN_ANOMALY":269.5899,"EPHEMERIS_TYPE":0,"NORAD_CAT_ID":42961,"ELEMENT_SET_NO":999,"REV_AT_EPOCH":45895,"BSTAR":0.000005385625,"MEAN_MOTION_DOT":3.5e-7,"MEAN_MOTION_DDOT":0},{"OBJECT_NAME":"IRIDIUM 136","OBJECT_ID":"2017-061H","EPOCH":"2026-07-16T04:58:46.912224","CLASSIFICATION_TYPE":"U","MEAN_MOTION":14.34217276,"ECCENTRICITY":0.00022522,"INCLINATION":86.3968,"RA_OF_ASC_NODE":13.1209,"ARG_OF_PERICENTER":89.9539,"MEAN_ANOMALY":270.1915,"EPHEMERIS_TYPE":0,"NORAD_CAT_ID":42962,"ELEMENT_SET_NO":999,"REV_AT_EPOCH":45899,"BSTAR":0.000006229046,"MEAN_MOTION_DOT":3.7e-7,"MEAN_MOTION_DDOT":0},{"OBJECT_NAME":"IRIDIUM 139","OBJECT_ID":"2017-061J","EPOCH":"2026-07-16T05:07:54.981120","CLASSIFICATION_TYPE":"U","MEAN_MOTION":14.34217244,"ECCENTRICITY":0.00022551,"INCLINATION":86.397,"RA_OF_ASC_NODE":13.1807,"ARG_OF_PERICENTER":92.2956,"MEAN_ANOMALY":267.8498,"EPHEMERIS_TYPE":0,"NORAD_CAT_ID":42963,"ELEMENT_SET_NO":999,"REV_AT_EPOCH":45900,"BSTAR":0.000007816033,"MEAN_MOTION_DOT":4.2e-7,"MEAN_MOTION_DDOT":0},{"OBJECT_NAME":"IRIDIUM 125","OBJECT_ID":"2017-061K","EPOCH":"2026-07-16T04:49:38.917632","CLASSIFICATION_TYPE":"U","MEAN_MOTION":14.34217488,"ECCENTRICITY":0.00016704,"INCLINATION":86.3971,"RA_OF_ASC_NODE":13.2476,"ARG_OF_PERICENTER":93.4382,"MEAN_ANOMALY":266.7005,"EPHEMERIS_TYPE":0,"NORAD_CAT_ID":42964,"ELEMENT_SET_NO":999,"REV_AT_EPOCH":45901,"BSTAR":0.000004708375,"MEAN_MOTION_DOT":3.3e-7,"MEAN_MOTION_DDOT":0},{"OBJECT_NAME":"IRIDIUM 135","OBJECT_ID":"2017-083A","EPOCH":"2026-07-16T07:33:19.190880","CLASSIFICATION_TYPE":"U","MEAN_MOTION":14.34218108,"ECCENTRICITY":0.00022118,"INCLINATION":86.3986,"RA_OF_ASC_NODE":309.84,"ARG_OF_PERICENTER":93.9279,"MEAN_ANOMALY":266.217,"EPHEMERIS_TYPE":0,"NORAD_CAT_ID":43070,"ELEMENT_SET_NO":999,"REV_AT_EPOCH":44832,"BSTAR":0.000017622555,"MEAN_MOTION_DOT":6.9e-7,"MEAN_MOTION_DDOT":0},{"OBJECT_NAME":"IRIDIUM 138","OBJECT_ID":"2017-083B","EPOCH":"2026-07-16T06:29:23.011008","CLASSIFICATION_TYPE":"U","MEAN_MOTION":14.34218881,"ECCENTRICITY":0.00020584,"INCLINATION":86.3999,"RA_OF_ASC_NODE":309.5583,"ARG_OF_PERICENTER":92.2687,"MEAN_ANOMALY":267.8744,"EPHEMERIS_TYPE":0,"NORAD_CAT_ID":43071,"ELEMENT_SET_NO":999,"REV_AT_EPOCH":44830,"BSTAR":0.000041413515,"MEAN_MOTION_DOT":0.00000136,"MEAN_MOTION_DDOT":0}]}
